*******************************************************************************
Ephemeris / WWW_USER Fri Mar  7 10:13:02 2025 Pasadena, USA      / Horizons    
*******************************************************************************
Target body name: (2018 PN20)                     {source: JPL#3}
Center body name: Earth (399)                     {source: DE441}
Center-site name: Mauna Kea
*******************************************************************************
Start time      : A.D. 2019-Jan-05 04:06:00.0000 UT      
Stop  time      : A.D. 2019-Jan-05 16:47:00.0000 UT      
Step-size       : 1 minutes
*******************************************************************************
Target pole/equ : undefined
Target radii    : undefined                                                    
Center geodetic : 204.5278, 19.8260847, 4.21024   {E-lon(deg),Lat(deg),Alt(km)}
Center cylindric: 204.5278, 6006.35451, 2151.0229 {E-lon(deg),Dxy(km),Dz(km)}
Center pole/equ : ITRF93                          {East-longitude positive}
Center radii    : 6378.137, 6378.137, 6356.752 km {Equator_a, b, pole_c}       
Target primary  : Sun
Vis. interferer : MOON (R_eq= 1737.400) km        {source: DE441}
Rel. light bend : Sun                             {source: DE441}
Rel. lght bnd GM: 1.3271E+11 km^3/s^2                                          
Small-body perts: Yes                             {source: SB441-N16}
Atmos refraction: NO (AIRLESS)
RA format       : HMS
Time format     : CAL 
Calendar mode   : Mixed Julian/Gregorian
RTS-only print  : NO       
EOP file        : eop.250306.p250602                                           
EOP coverage    : DATA-BASED 1962-JAN-20 TO 2025-MAR-06. PREDICTS-> 2025-JUN-01
Units conversion: 1 au= 149597870.700 km, c= 299792.458 km/s, 1 day= 86400.0 s 
Table cut-offs 1: Elevation (-90.0deg=NO ),Airmass (>38.000=NO), Daylight (YES)
Table cut-offs 2: Solar elongation (  0.0,180.0=NO ),Local Hour Angle( 0.0=NO )
Table cut-offs 3: RA/DEC angular rate (     0.0=NO )                           
*******************************************************************************
Initial IAU76/J2000 heliocentric ecliptic osculating elements (au, days, deg.):
  EPOCH=  2458343.5 ! 2018-Aug-13.00 (TDB)         Residual RMS= .1225         
   EC= .3775096637251725   QR= 1.051585063958075   TP= 2458346.3972912203      
   OM= 142.6884316149991   W=  180.4368328240348   IN= 18.91630320954361       
  Equivalent ICRF heliocentric cartesian coordinates (au, au/d):
   X= 8.077039416640637E-01  Y=-6.245728834467501E-01  Z=-2.534674905132982E-01
  VX= 1.177737749455786E-02 VY= 1.576958466977457E-02 VZ=-1.142216194306418E-04
Asteroid physical parameters (km, seconds, rotational period in hours):        
   GM= n.a.                RAD= n.a.               ROTPER= n.a.                
   H= 25.1                 G= .150                 B-V= n.a.                   
                           ALBEDO= n.a.            STYP= n.a.                  
*******************************************************************************
 Date__(UT)__HR:MN     R.A._________(ICRF)_________DEC
******************************************************
$$SOE
 2019-Jan-05 12:18     02 54 13.730570 -14 00 57.57640
 2019-Jan-05 12:19     02 54 13.772173 -14 00 56.44441
 2019-Jan-05 12:20     02 54 13.813786 -14 00 55.31243
 2019-Jan-05 12:21     02 54 13.855411 -14 00 54.18045
 2019-Jan-05 12:22     02 54 13.897046 -14 00 53.04848
 2019-Jan-05 12:23     02 54 13.938693 -14 00 51.91652
 2019-Jan-05 12:24     02 54 13.980351 -14 00 50.78457
 2019-Jan-05 12:25     02 54 14.022020 -14 00 49.65262
 2019-Jan-05 12:26     02 54 14.063699 -14 00 48.52068
 2019-Jan-05 12:27     02 54 14.105390 -14 00 47.38875
 2019-Jan-05 12:28     02 54 14.147093 -14 00 46.25683
 2019-Jan-05 12:29     02 54 14.188806 -14 00 45.12491
 2019-Jan-05 12:30     02 54 14.230530 -14 00 43.99301
 2019-Jan-05 12:31     02 54 14.272265 -14 00 42.86111
 2019-Jan-05 12:32     02 54 14.314011 -14 00 41.72922
 2019-Jan-05 12:33     02 54 14.355769 -14 00 40.59734
 2019-Jan-05 12:34     02 54 14.397537 -14 00 39.46546
 2019-Jan-05 12:35     02 54 14.439317 -14 00 38.33360
 2019-Jan-05 12:36     02 54 14.481107 -14 00 37.20175
 2019-Jan-05 12:37     02 54 14.522909 -14 00 36.06990
 2019-Jan-05 12:38     02 54 14.564721 -14 00 34.93806
 2019-Jan-05 12:39     02 54 14.606545 -14 00 33.80624
 2019-Jan-05 12:40     02 54 14.648380 -14 00 32.67442
 2019-Jan-05 12:41     02 54 14.690225 -14 00 31.54261
 2019-Jan-05 12:42     02 54 14.732082 -14 00 30.41082
 2019-Jan-05 12:43     02 54 14.773950 -14 00 29.27903
 2019-Jan-05 12:44     02 54 14.815829 -14 00 28.14726
 2019-Jan-05 12:45     02 54 14.857718 -14 00 27.01549
 2019-Jan-05 12:46     02 54 14.899619 -14 00 25.88374
 2019-Jan-05 12:47     02 54 14.941531 -14 00 24.75199
 2019-Jan-05 12:48     02 54 14.983453 -14 00 23.62026
 2019-Jan-05 12:49     02 54 15.025387 -14 00 22.48854
 2019-Jan-05 12:50     02 54 15.067332 -14 00 21.35683
 2019-Jan-05 12:51     02 54 15.109287 -14 00 20.22513
 2019-Jan-05 12:52     02 54 15.151254 -14 00 19.09345
 2019-Jan-05 12:53     02 54 15.193232 -14 00 17.96177
 2019-Jan-05 12:54     02 54 15.235220 -14 00 16.83011
 2019-Jan-05 12:55     02 54 15.277219 -14 00 15.69846
 2019-Jan-05 12:56     02 54 15.319230 -14 00 14.56682
 2019-Jan-05 12:57     02 54 15.361251 -14 00 13.43519
 2019-Jan-05 12:58     02 54 15.403283 -14 00 12.30358
 2019-Jan-05 12:59     02 54 15.445326 -14 00 11.17198
 2019-Jan-05 13:00     02 54 15.487380 -14 00 10.04039
 2019-Jan-05 13:01     02 54 15.529445 -14 00 08.90882
 2019-Jan-05 13:02     02 54 15.571521 -14 00 07.77726
 2019-Jan-05 13:03     02 54 15.613608 -14 00 06.64571
 2019-Jan-05 13:04     02 54 15.655705 -14 00 05.51418
 2019-Jan-05 13:05     02 54 15.697814 -14 00 04.38266
 2019-Jan-05 13:06     02 54 15.739933 -14 00 03.25115
 2019-Jan-05 13:07     02 54 15.782063 -14 00 02.11966
 2019-Jan-05 13:08     02 54 15.824204 -14 00 00.98818
 2019-Jan-05 13:09     02 54 15.866355 -13 59 59.85672
 2019-Jan-05 13:10     02 54 15.908518 -13 59 58.72527
 2019-Jan-05 13:11     02 54 15.950691 -13 59 57.59384
 2019-Jan-05 13:12     02 54 15.992875 -13 59 56.46242
 2019-Jan-05 13:13     02 54 16.035070 -13 59 55.33101
 2019-Jan-05 13:14     02 54 16.077276 -13 59 54.19963
 2019-Jan-05 13:15     02 54 16.119492 -13 59 53.06825
 2019-Jan-05 13:16     02 54 16.161719 -13 59 51.93689
 2019-Jan-05 13:17     02 54 16.203957 -13 59 50.80555
 2019-Jan-05 13:18     02 54 16.246205 -13 59 49.67423
 2019-Jan-05 13:19     02 54 16.288464 -13 59 48.54291
 2019-Jan-05 13:20     02 54 16.330734 -13 59 47.41162
 2019-Jan-05 13:21     02 54 16.373015 -13 59 46.28034
 2019-Jan-05 13:22     02 54 16.415306 -13 59 45.14908
 2019-Jan-05 13:23     02 54 16.457608 -13 59 44.01783
 2019-Jan-05 13:24     02 54 16.499920 -13 59 42.88661
 2019-Jan-05 13:25     02 54 16.542244 -13 59 41.75539
 2019-Jan-05 13:26     02 54 16.584577 -13 59 40.62420
 2019-Jan-05 13:27     02 54 16.626922 -13 59 39.49302
 2019-Jan-05 13:28     02 54 16.669277 -13 59 38.36186
 2019-Jan-05 13:29     02 54 16.711642 -13 59 37.23072
 2019-Jan-05 13:30     02 54 16.754018 -13 59 36.09960
 2019-Jan-05 13:31     02 54 16.796405 -13 59 34.96849
 2019-Jan-05 13:32     02 54 16.838802 -13 59 33.83740
 2019-Jan-05 13:33     02 54 16.881209 -13 59 32.70633
 2019-Jan-05 13:34     02 54 16.923628 -13 59 31.57528
 2019-Jan-05 13:35     02 54 16.966056 -13 59 30.44424
 2019-Jan-05 13:36     02 54 17.008495 -13 59 29.31323
 2019-Jan-05 13:37     02 54 17.050945 -13 59 28.18223
 2019-Jan-05 13:38     02 54 17.093405 -13 59 27.05125
 2019-Jan-05 13:39     02 54 17.135875 -13 59 25.92029
 2019-Jan-05 13:40     02 54 17.178356 -13 59 24.78935
 2019-Jan-05 13:41     02 54 17.220847 -13 59 23.65843
 2019-Jan-05 13:42     02 54 17.263348 -13 59 22.52753
 2019-Jan-05 13:43     02 54 17.305860 -13 59 21.39665
 2019-Jan-05 13:44     02 54 17.348382 -13 59 20.26579
 2019-Jan-05 13:45     02 54 17.390915 -13 59 19.13494
 2019-Jan-05 13:46     02 54 17.433458 -13 59 18.00412
 2019-Jan-05 13:47     02 54 17.476011 -13 59 16.87332
 2019-Jan-05 13:48     02 54 17.518574 -13 59 15.74254
 2019-Jan-05 13:49     02 54 17.561148 -13 59 14.61178
 2019-Jan-05 13:50     02 54 17.603732 -13 59 13.48104
 2019-Jan-05 13:51     02 54 17.646326 -13 59 12.35032
 2019-Jan-05 13:52     02 54 17.688930 -13 59 11.21962
 2019-Jan-05 13:53     02 54 17.731544 -13 59 10.08894
 2019-Jan-05 13:54     02 54 17.774169 -13 59 08.95829
 2019-Jan-05 13:55     02 54 17.816803 -13 59 07.82765
 2019-Jan-05 13:56     02 54 17.859448 -13 59 06.69704
 2019-Jan-05 13:57     02 54 17.902103 -13 59 05.56645
 2019-Jan-05 13:58     02 54 17.944768 -13 59 04.43588
 2019-Jan-05 13:59     02 54 17.987443 -13 59 03.30533
 2019-Jan-05 14:00     02 54 18.030128 -13 59 02.17481
 2019-Jan-05 14:01     02 54 18.072823 -13 59 01.04430
 2019-Jan-05 14:02     02 54 18.115528 -13 58 59.91382
 2019-Jan-05 14:03     02 54 18.158244 -13 58 58.78337
 2019-Jan-05 14:04     02 54 18.200969 -13 58 57.65293
 2019-Jan-05 14:05     02 54 18.243704 -13 58 56.52252
 2019-Jan-05 14:06     02 54 18.286448 -13 58 55.39213
 2019-Jan-05 14:07     02 54 18.329203 -13 58 54.26176
 2019-Jan-05 14:08     02 54 18.371968 -13 58 53.13142
 2019-Jan-05 14:09     02 54 18.414742 -13 58 52.00110
 2019-Jan-05 14:10     02 54 18.457527 -13 58 50.87080
 2019-Jan-05 14:11     02 54 18.500321 -13 58 49.74053
 2019-Jan-05 14:12     02 54 18.543125 -13 58 48.61028
 2019-Jan-05 14:13     02 54 18.585938 -13 58 47.48005
 2019-Jan-05 14:14     02 54 18.628762 -13 58 46.34985
 2019-Jan-05 14:15     02 54 18.671595 -13 58 45.21968
 2019-Jan-05 14:16     02 54 18.714438 -13 58 44.08953
 2019-Jan-05 14:17     02 54 18.757290 -13 58 42.95940
 2019-Jan-05 14:18     02 54 18.800152 -13 58 41.82930
 2019-Jan-05 14:19     02 54 18.843024 -13 58 40.69922
 2019-Jan-05 14:20     02 54 18.885906 -13 58 39.56916
